CZ-2F DEB               
1 67692U 26024D   26050.54885684  .00213629  00000+0  42196-2 0  9991
2 67692  50.3133 107.3514 0257632 208.6727 149.9859 15.17600455  1869
STARLINK-36748          
1 67693U 26025A   26050.58336806 -.01500601  00000+0 -62557-2 0  9999
2 67693  97.2782 161.1764 0001348  67.0247 295.8213 15.88559721  2942
STARLINK-36753          
1 67694U 26025B   26050.58336806 -.01709819  79288-3 -59596-2 0  9999
2 67694  97.2769 161.1857 0001429  68.3557 316.5529 15.89437676  3092
STARLINK-36750          
1 67695U 26025C   26050.58336806 -.01498637  00000+0 -61473-2 0  9992
2 67695  97.2777 161.1797 0001106  78.3573 292.5617 15.88879806  2944
STARLINK-36401          
1 67696U 26025D   26050.58336806 -.01501120  00000+0 -60772-2 0  9996
2 67696  97.2774 161.1825 0001327  67.0136 310.4725 15.89141984  2949
STARLINK-36704          
1 67697U 26025E   26050.58336806 -.01689083  77732-3 -58014-2 0  9998
2 67697  97.2764 161.1887 0001290  69.0603 323.3071 15.89729430  2942
STARLINK-36697          
1 67698U 26025F   26050.58336806 -.01690046  77977-3 -57427-2 0  9998
2 67698  97.2763 161.1915 0001365  70.2663 327.5190 15.89943778  2892
STARLINK-36716          
1 67699U 26025G   26050.58336806 -.01688068  78023-3 -56555-2 0  9994
2 67699  97.2757 161.1940 0001318  69.7986 334.9876 15.90225163  3092
STARLINK-36712          
1 67700U 26025H   26050.58336806 -.01687471  78183-3 -55759-2 0  9996
2 67700  97.2756 161.1971 0001421  66.6297 344.9465 15.90499241  2896
STARLINK-36713          
1 67701U 26025J   26050.58336806 -.01689276  78540-3 -55088-2 0  9994
2 67701  97.2750 161.1995 0001505  61.9577 356.3692 15.90759738  3091
STARLINK-36695          
1 67702U 26025K   26050.58336806 -.01671119  77156-3 -53854-2 0  9993
2 67702  97.2747 161.2017 0001433  63.1627   0.7813 15.90991242  2940
STARLINK-36630          
1 67703U 26025L   26050.58336806 -.01668540  77100-3 -53185-2 0  9994
2 67703  97.2747 161.2044 0001426  63.7107   5.6678 15.91206614  2948
