CCSDS_OMM_VERS = 2.0
CREATION_DATE  = 
ORIGINATOR     = 

OBJECT_NAME    = CZ-2F DEB
OBJECT_ID      = 2026-024D
CENTER_NAME    = EARTH
REF_FRAME      = TEME
TIME_SYSTEM    = UTC
MEAN_ELEMENT_THEORY = SGP/SGP4

EPOCH          = 2026-02-19T13:10:21.230976
MEAN_MOTION    = 15.17600455
ECCENTRICITY   = .02576325
INCLINATION    = 50.3133
RA_OF_ASC_NODE = 107.3514
ARG_OF_PERICENTER = 208.6727
MEAN_ANOMALY   = 149.9859

EPHEMERIS_TYPE = 0
CLASSIFICATION_TYPE = U
NORAD_CAT_ID   = 67692
ELEMENT_SET_NO = 999
REV_AT_EPOCH   = 186
BSTAR          = .42195589E-2
MEAN_MOTION_DOT = .213629E-2
MEAN_MOTION_DDOT = 0

CCSDS_OMM_VERS = 2.0
CREATION_DATE  = 
ORIGINATOR     = 

OBJECT_NAME    = STARLINK-36748
OBJECT_ID      = 2026-025A
CENTER_NAME    = EARTH
REF_FRAME      = TEME
TIME_SYSTEM    = UTC
MEAN_ELEMENT_THEORY = SGP/SGP4

EPOCH          = 2026-02-19T14:00:03.000384
MEAN_MOTION    = 15.88559721
ECCENTRICITY   = .00013483
INCLINATION    = 97.2782
RA_OF_ASC_NODE = 161.1764
ARG_OF_PERICENTER = 67.0247
MEAN_ANOMALY   = 295.8213

EPHEMERIS_TYPE = 0
CLASSIFICATION_TYPE = U
NORAD_CAT_ID   = 67693
ELEMENT_SET_NO = 999
REV_AT_EPOCH   = 294
BSTAR          = -.62556657E-2
MEAN_MOTION_DOT = -.1500601E-1
MEAN_MOTION_DDOT = 0

CCSDS_OMM_VERS = 2.0
CREATION_DATE  = 
ORIGINATOR     = 

OBJECT_NAME    = STARLINK-36753
OBJECT_ID      = 2026-025B
CENTER_NAME    = EARTH
REF_FRAME      = TEME
TIME_SYSTEM    = UTC
MEAN_ELEMENT_THEORY = SGP/SGP4

EPOCH          = 2026-02-19T14:00:03.000384
MEAN_MOTION    = 15.89437676
ECCENTRICITY   = .00014295
INCLINATION    = 97.2769
RA_OF_ASC_NODE = 161.1857
ARG_OF_PERICENTER = 68.3557
MEAN_ANOMALY   = 316.5529

EPHEMERIS_TYPE = 0
CLASSIFICATION_TYPE = U
NORAD_CAT_ID   = 67694
ELEMENT_SET_NO = 999
REV_AT_EPOCH   = 309
BSTAR          = -.59596231E-2
MEAN_MOTION_DOT = -.1709819E-1
MEAN_MOTION_DDOT = .79287705E-3

CCSDS_OMM_VERS = 2.0
CREATION_DATE  = 
ORIGINATOR     = 

OBJECT_NAME    = STARLINK-36750
OBJECT_ID      = 2026-025C
CENTER_NAME    = EARTH
REF_FRAME      = TEME
TIME_SYSTEM    = UTC
MEAN_ELEMENT_THEORY = SGP/SGP4

EPOCH          = 2026-02-19T14:00:03.000384
MEAN_MOTION    = 15.88879806
ECCENTRICITY   = .00011068
INCLINATION    = 97.2777
RA_OF_ASC_NODE = 161.1797
ARG_OF_PERICENTER = 78.3573
MEAN_ANOMALY   = 292.5617

EPHEMERIS_TYPE = 0
CLASSIFICATION_TYPE = U
NORAD_CAT_ID   = 67695
ELEMENT_SET_NO = 999
REV_AT_EPOCH   = 294
BSTAR          = -.61473414E-2
MEAN_MOTION_DOT = -.1498637E-1
MEAN_MOTION_DDOT = 0

CCSDS_OMM_VERS = 2.0
CREATION_DATE  = 
ORIGINATOR     = 

OBJECT_NAME    = STARLINK-36401
OBJECT_ID      = 2026-025D
CENTER_NAME    = EARTH
REF_FRAME      = TEME
TIME_SYSTEM    = UTC
MEAN_ELEMENT_THEORY = SGP/SGP4

EPOCH          = 2026-02-19T14:00:03.000384
MEAN_MOTION    = 15.89141984
ECCENTRICITY   = .00013272
INCLINATION    = 97.2774
RA_OF_ASC_NODE = 161.1825
ARG_OF_PERICENTER = 67.0136
MEAN_ANOMALY   = 310.4725

EPHEMERIS_TYPE = 0
CLASSIFICATION_TYPE = U
NORAD_CAT_ID   = 67696
ELEMENT_SET_NO = 999
REV_AT_EPOCH   = 294
BSTAR          = -.60771928E-2
MEAN_MOTION_DOT = -.150112E-1
MEAN_MOTION_DDOT = 0

CCSDS_OMM_VERS = 2.0
CREATION_DATE  = 
ORIGINATOR     = 

OBJECT_NAME    = STARLINK-36704
OBJECT_ID      = 2026-025E
CENTER_NAME    = EARTH
REF_FRAME      = TEME
TIME_SYSTEM    = UTC
MEAN_ELEMENT_THEORY = SGP/SGP4

EPOCH          = 2026-02-19T14:00:03.000384
MEAN_MOTION    = 15.89729430
ECCENTRICITY   = .00012908
INCLINATION    = 97.2764
RA_OF_ASC_NODE = 161.1887
ARG_OF_PERICENTER = 69.0603
MEAN_ANOMALY   = 323.3071

EPHEMERIS_TYPE = 0
CLASSIFICATION_TYPE = U
NORAD_CAT_ID   = 67697
ELEMENT_SET_NO = 999
REV_AT_EPOCH   = 294
BSTAR          = -.58014458E-2
MEAN_MOTION_DOT = -.1689083E-1
MEAN_MOTION_DDOT = .77732021E-3

CCSDS_OMM_VERS = 2.0
CREATION_DATE  = 
ORIGINATOR     = 

OBJECT_NAME    = STARLINK-36697
OBJECT_ID      = 2026-025F
CENTER_NAME    = EARTH
REF_FRAME      = TEME
TIME_SYSTEM    = UTC
MEAN_ELEMENT_THEORY = SGP/SGP4

EPOCH          = 2026-02-19T14:00:03.000384
MEAN_MOTION    = 15.89943778
ECCENTRICITY   = .00013657
INCLINATION    = 97.2763
RA_OF_ASC_NODE = 161.1915
ARG_OF_PERICENTER = 70.2663
MEAN_ANOMALY   = 327.5190

EPHEMERIS_TYPE = 0
CLASSIFICATION_TYPE = U
NORAD_CAT_ID   = 67698
ELEMENT_SET_NO = 999
REV_AT_EPOCH   = 289
BSTAR          = -.57427483E-2
MEAN_MOTION_DOT = -.1690046E-1
MEAN_MOTION_DDOT = .77977486E-3

CCSDS_OMM_VERS = 2.0
CREATION_DATE  = 
ORIGINATOR     = 

OBJECT_NAME    = STARLINK-36716
OBJECT_ID      = 2026-025G
CENTER_NAME    = EARTH
REF_FRAME      = TEME
TIME_SYSTEM    = UTC
MEAN_ELEMENT_THEORY = SGP/SGP4

EPOCH          = 2026-02-19T14:00:03.000384
MEAN_MOTION    = 15.90225163
ECCENTRICITY   = .0001318
INCLINATION    = 97.2757
RA_OF_ASC_NODE = 161.1940
ARG_OF_PERICENTER = 69.7986
MEAN_ANOMALY   = 334.9876

EPHEMERIS_TYPE = 0
CLASSIFICATION_TYPE = U
NORAD_CAT_ID   = 67699
ELEMENT_SET_NO = 999
REV_AT_EPOCH   = 309
BSTAR          = -.56554856E-2
MEAN_MOTION_DOT = -.1688068E-1
MEAN_MOTION_DDOT = .78023142E-3

CCSDS_OMM_VERS = 2.0
CREATION_DATE  = 
ORIGINATOR     = 

OBJECT_NAME    = STARLINK-36712
OBJECT_ID      = 2026-025H
CENTER_NAME    = EARTH
REF_FRAME      = TEME
TIME_SYSTEM    = UTC
MEAN_ELEMENT_THEORY = SGP/SGP4

EPOCH          = 2026-02-19T14:00:03.000384
MEAN_MOTION    = 15.90499241
ECCENTRICITY   = .00014216
INCLINATION    = 97.2756
RA_OF_ASC_NODE = 161.1971
ARG_OF_PERICENTER = 66.6297
MEAN_ANOMALY   = 344.9465

EPHEMERIS_TYPE = 0
CLASSIFICATION_TYPE = U
NORAD_CAT_ID   = 67700
ELEMENT_SET_NO = 999
REV_AT_EPOCH   = 289
BSTAR          = -.5575857E-2
MEAN_MOTION_DOT = -.1687471E-1
MEAN_MOTION_DDOT = .78182659E-3

CCSDS_OMM_VERS = 2.0
CREATION_DATE  = 
ORIGINATOR     = 

OBJECT_NAME    = STARLINK-36713
OBJECT_ID      = 2026-025J
CENTER_NAME    = EARTH
REF_FRAME      = TEME
TIME_SYSTEM    = UTC
MEAN_ELEMENT_THEORY = SGP/SGP4

EPOCH          = 2026-02-19T14:00:03.000384
MEAN_MOTION    = 15.90759738
ECCENTRICITY   = .00015053
INCLINATION    = 97.2750
RA_OF_ASC_NODE = 161.1995
ARG_OF_PERICENTER = 61.9577
MEAN_ANOMALY   = 356.3692

EPHEMERIS_TYPE = 0
CLASSIFICATION_TYPE = U
NORAD_CAT_ID   = 67701
ELEMENT_SET_NO = 999
REV_AT_EPOCH   = 309
BSTAR          = -.55088308E-2
MEAN_MOTION_DOT = -.1689276E-1
MEAN_MOTION_DDOT = .7854005E-3

CCSDS_OMM_VERS = 2.0
CREATION_DATE  = 
ORIGINATOR     = 

OBJECT_NAME    = STARLINK-36695
OBJECT_ID      = 2026-025K
CENTER_NAME    = EARTH
REF_FRAME      = TEME
TIME_SYSTEM    = UTC
MEAN_ELEMENT_THEORY = SGP/SGP4

EPOCH          = 2026-02-19T14:00:03.000384
MEAN_MOTION    = 15.90991242
ECCENTRICITY   = .00014334
INCLINATION    = 97.2747
RA_OF_ASC_NODE = 161.2017
ARG_OF_PERICENTER = 63.1627
MEAN_ANOMALY   = 0.7813

EPHEMERIS_TYPE = 0
CLASSIFICATION_TYPE = U
NORAD_CAT_ID   = 67702
ELEMENT_SET_NO = 999
REV_AT_EPOCH   = 294
BSTAR          = -.53854367E-2
MEAN_MOTION_DOT = -.1671119E-1
MEAN_MOTION_DDOT = .77156295E-3

CCSDS_OMM_VERS = 2.0
CREATION_DATE  = 
ORIGINATOR     = 

OBJECT_NAME    = STARLINK-36630
OBJECT_ID      = 2026-025L
CENTER_NAME    = EARTH
REF_FRAME      = TEME
TIME_SYSTEM    = UTC
MEAN_ELEMENT_THEORY = SGP/SGP4

EPOCH          = 2026-02-19T14:00:03.000384
MEAN_MOTION    = 15.91206614
ECCENTRICITY   = .0001426
INCLINATION    = 97.2747
RA_OF_ASC_NODE = 161.2044
ARG_OF_PERICENTER = 63.7107
MEAN_ANOMALY   = 5.6678

EPHEMERIS_TYPE = 0
CLASSIFICATION_TYPE = U
NORAD_CAT_ID   = 67703
ELEMENT_SET_NO = 999
REV_AT_EPOCH   = 294
BSTAR          = -.5318525E-2
MEAN_MOTION_DOT = -.166854E-1
MEAN_MOTION_DDOT = .77100175E-3

